SENTINEL-6              
1 46984U 20086A   24107.39551145 -.00000040  00000+0  92118-4 0  9993
2 46984  66.0436 339.6136 0007782 271.3146  88.6978 12.80929925158914
